[{"OBJECT_NAME":"SITRO-AIS 8 (ANOKHIN)","OBJECT_ID":"2023-091AD","EPOCH":"2026-03-09T23:44:40.058592","MEAN_MOTION":15.29359179,"ECCENTRICITY":0.0012509,"INCLINATION":97.5169,"RA_OF_ASC_NODE":133.2823,"ARG_OF_PERICENTER":92.0171,"MEAN_ANOMALY":268.2501,"EPHEMERIS_TYPE":0,"CLASSIFICATION_TYPE":"U","NORAD_CAT_ID":57193,"ELEMENT_SET_NO":999,"REV_AT_EPOCH":14927,"BSTAR":0.00064982524,"MEAN_MOTION_DOT":0.00018494,"MEAN_MOTION_DDOT":0},{"OBJECT_NAME":"STARLINK-32283","OBJECT_ID":"2024-249S","EPOCH":"2026-03-09T00:41:02.411232","MEAN_MOTION":15.27584278,"ECCENTRICITY":0.00019915,"INCLINATION":43.0015,"RA_OF_ASC_NODE":314.2453,"ARG_OF_PERICENTER":267.6192,"MEAN_ANOMALY":92.4432,"EPHEMERIS_TYPE":0,"CLASSIFICATION_TYPE":"U","NORAD_CAT_ID":62425,"ELEMENT_SET_NO":999,"REV_AT_EPOCH":6775,"BSTAR":0.0015652681,"MEAN_MOTION_DOT":0.00043069,"MEAN_MOTION_DDOT":0}]
